BEIJING 1               
1 28890U 05043A   20121.36838731  .00000036  00000-0  16414-4 0  9993
2 28890  98.0225 251.5721 0016617  94.1187 266.1924 14.61287851773492
HJ-1A                   
1 33320U 08041A   20121.91528742  .00000092  00000-0  20129-4 0  9997
2 33320  97.7914 175.5144 0025815 223.7675 136.1495 14.77061229627586
HJ-1B                   
1 33321U 08041B   20121.91604350  .00000094  00000-0  20392-4 0  9992
2 33321  97.7994 177.7554 0033346 252.2079 107.5489 14.77221851627581
YAOGAN 4                
1 33446U 08061A   20121.78693422  .00000074  00000-0  17447-4 0  9990
2 33446  97.7223  79.3783 0017233 131.3465 228.9231 14.77023474614791
DEIMOS-1                
1 35681U 09041A   20121.36002761 -.00000074  00000-0 -42961-5 0  9998
2 35681  97.8182 356.7766 0001472 149.2874 210.8403 14.71830595577313
UK-DMC 2                
1 35683U 09041C   20121.90886262  .00000028  00000-0  11984-4 0  9993
2 35683  97.7045 327.0238 0001011  90.2322 269.9000 14.71143205577187
RISAT 1                 
1 38248U 12017A   20121.73825296  .00000237  00000-0  18467-4 0  9996
2 38248  97.5677 131.5477 0005610  60.2170 299.9617 15.10054674441436
DMC3-FM1                
1 40715U 15032A   20121.38284636  .00000025  00000-0  11485-4 0  9994
2 40715  97.9384  16.0887 0016499  22.8820 337.3111 14.73686568258570
DMC3-FM2                
1 40716U 15032B   20121.88025728  .00000031  00000-0  12346-4 0  9999
2 40716  97.9409  16.9168 0013853  30.6282 329.5747 14.73692121258659
DMC3-FM3                
1 40717U 15032C   20121.35987261  .00000021  00000-0  10919-4 0  9994
2 40717  97.9419  17.1226 0017419  24.2292 335.9723 14.73697977258571
